STARLINK-37508          
1 69257U 26117V   26159.25004630 -.01936225  00000+0 -71314-2 0  9996
2 69257  53.1559 288.0789 0000624  70.3628 344.4202 15.90720162  2722
STARLINK-37276          
1 69258U 26117W   26159.25004630 -.01962710  10975-2 -46449-2 0  9991
2 69258  53.1558 287.9554 0001041  45.3139  68.4946 15.96234656  2725
STARLINK-37518          
1 69259U 26117X   26159.25004630 -.01520854  68983-3 -34478-2 0  9993
2 69259  53.1556 287.9445 0001137  55.6470  63.8232 15.96956218  2734
STARLINK-37478          
1 69260U 26117Y   26159.25004630 -.00326321  46803-4 -78165-3 0  9997
2 69260  53.1558 287.9498 0000889  56.6118  60.3915 15.95660136  2739
STARLINK-37506          
1 69261U 26117Z   26159.25004630 -.00328123  47175-4 -78756-3 0  9999
2 69261  53.1554 287.9402 0000948  56.6553  64.8019 15.95623876  2734
STARLINK-37503          
1 69262U 26117AA  26159.25004630 -.00373007  57019-4 -93692-3 0  9995
2 69262  53.1557 287.9293 0000774  58.8153  67.6690 15.94809474  2738
STARLINK-37502          
1 69263U 26117AB  26159.25004630 -.00318626  45036-4 -77659-3 0  9993
2 69263  53.1556 287.9250 0000938  54.9704  73.3394 15.95334130  2730
STARLINK-37486          
1 69264U 26117AC  26159.25004630 -.00324025  46211-4 -78617-3 0  9995
2 69264  53.1554 287.9127 0000867  59.3282  75.0592 15.95421948  2736
STARLINK-37435          
1 69265U 26117AD  26159.25004630 -.01894513  10219-2 -46057-2 0  9990
2 69265  53.1554 287.8886 0000984  63.5633  81.8935 15.95731911  2735
STARLINK-37464          
1 69266U 26117AE  26159.25004630 -.02069742  12087-2 -49854-2 0  9993
2 69266  53.1553 287.8655 0000943  65.7593  90.8112 15.95923413  2730
KUIPER-00282            
1 69267U 26118A   26159.25004630  .00066242  00000+0  19092-2 0  9993
2 69267  51.8580  96.6205 0012170 151.0328 288.6253 15.35040037  1988
KUIPER-00383            
1 69268U 26118B   26159.25004630  .00051530  00000+0  14860-2 0  9996
2 69268  51.8584  96.5907 0010291 149.3739 304.9081 15.35154648  2042
KUIPER-00527            
1 69269U 26118C   26159.25004630  .00070811  00000+0  19928-2 0  9990
2 69269  51.8613  96.5681 0009819 142.8832 323.0020 15.35781267  1307
KUIPER-00562            
1 69270U 26118D   26159.25004630  .00065195  00000+0  16897-2 0  9993
2 69270  51.8721  96.4037 0001947  83.8654  97.2108 15.38412886  2571
KUIPER-00570            
1 69271U 26118E   26159.25004630  .00060468  00000+0  17276-2 0  9994
2 69271  51.8571  96.5911 0011367 152.4199 301.6307 15.35364651  2162
KUIPER-00572            
1 69272U 26118F   26159.25004630  .00063290  00000+0  17294-2 0  9991
2 69272  51.8670  96.5249 0007285 137.8901 348.8976 15.36771575  1914
KUIPER-00581            
1 69273U 26118G   26159.25004630  .00062968  00000+0  17382-2 0  9991
2 69273  51.8650  96.5473 0008820 143.3733 332.7708 15.36445244  2707
KUIPER-00584            
1 69274U 26118H   26159.25004630  .00060931  00000+0  17472-2 0  9990
2 69274  51.8598  96.6113 0011080 156.3492 288.0761 15.35250578  1309
KUIPER-00587            
1 69275U 26118J   26159.25004630  .00062626  00000+0  17303-2 0  9997
2 69275  51.8624  96.5413 0008271 144.5567 334.6101 15.36424868  1304
KUIPER-00590            
1 69276U 26118K   26159.25004630  .00065123  00000+0  17295-2 0  9993
2 69276  51.8687  96.4642 0004245 124.7132  31.4761 15.37656333  2469
KUIPER-00592            
1 69277U 26118L   26159.25004630  .00065331  00000+0  17228-2 0  9991
2 69277  51.8707  96.4473 0003765 102.0469  61.0880 15.37874167  1303
KUIPER-00593            
1 69278U 26118M   26159.25004630  .00063898  00000+0  16909-2 0  9993
2 69278  51.8713  96.4483 0003976 120.0017  41.9629 15.37777131  2677
KUIPER-00594            
1 69279U 26118N   26159.25004630  .00067902  00000+0  17596-2 0  9997
2 69279  51.8717  96.3950 0001522  52.8384 134.3856 15.38399203  1303
KUIPER-00595            
1 69280U 26118P   26159.25004630  .00063718  00000+0  16594-2 0  9997
2 69280  51.8712  96.4153 0001924  97.5961  80.8810 15.38273726  2643
KUIPER-00596            
1 69281U 26118Q   26159.25004630  .00062368  00000+0  17676-2 0  9990
2 69281  51.8547  96.5995 0011822 151.3872 297.7667 15.35597202  1916
KUIPER-00597            
1 69282U 26118R   26159.25004630  .00063118  00000+0  17214-2 0  9993
2 69282  51.8648  96.5096 0007109 136.0083 358.7768 15.36831853  1305
KUIPER-00599            
1 69283U 26118S   26159.25004630  .00064681  00000+0  17463-2 0  9996
2 69283  51.8690  96.4968 0006225 131.0232   9.0285 15.37141252  1712
KUIPER-00600            
1 69284U 26118T   26159.25004630  .00063545  00000+0  17485-2 0  9999
2 69284  51.8637  96.5372 0008930 138.9856 342.1585 15.36540113  2495
KUIPER-00601            
1 69285U 26118U   26159.25004630  .00065513  00000+0  17503-2 0  9998
2 69285  51.8703  96.4753 0004742 123.3549  26.4394 15.37467300  2527
KUIPER-00602            
1 69286U 26118V   26159.25004630  .00063598  00000+0  16762-2 0  9996
2 69286  51.8701  96.4419 0003091 110.6835  55.7051 15.37905546  1307
