OBJECT_NAME,OBJECT_ID,EPOCH,MEAN_MOTION,ECCENTRICITY,INCLINATION,RA_OF_ASC_NODE,ARG_OF_PERICENTER,MEAN_ANOMALY,EPHEMERIS_TYPE,CLASSIFICATION_TYPE,NORAD_CAT_ID,ELEMENT_SET_NO,REV_AT_EPOCH,BSTAR,MEAN_MOTION_DOT,MEAN_MOTION_DDOT
STARLINK-37508,2026-117V,2026-06-08T06:00:04.000320,15.90720162,.00006249,53.1559,288.0789,70.3628,344.4202,0,U,69257,999,272,-.71313986E-2,-.1936225E-1,0
STARLINK-37276,2026-117W,2026-06-08T06:00:04.000320,15.96234656,.00010417,53.1558,287.9554,45.3139,68.4946,0,U,69258,999,272,-.46449297E-2,-.196271E-1,.10975362E-2
STARLINK-37518,2026-117X,2026-06-08T06:00:04.000320,15.96956218,.00011377,53.1556,287.9445,55.6470,63.8232,0,U,69259,999,273,-.34477876E-2,-.1520854E-1,.68983067E-3
STARLINK-37478,2026-117Y,2026-06-08T06:00:04.000320,15.95660136,.00008891,53.1558,287.9498,56.6118,60.3915,0,U,69260,999,273,-.7816479E-3,-.326321E-2,.46802859E-4
STARLINK-37506,2026-117Z,2026-06-08T06:00:04.000320,15.95623876,.00009485,53.1554,287.9402,56.6553,64.8019,0,U,69261,999,273,-.78756077E-3,-.328123E-2,.47174875E-4
STARLINK-37503,2026-117AA,2026-06-08T06:00:04.000320,15.94809474,.00007746,53.1557,287.9293,58.8153,67.6690,0,U,69262,999,273,-.93692387E-3,-.373007E-2,.570186E-4
STARLINK-37502,2026-117AB,2026-06-08T06:00:04.000320,15.95334130,.00009383,53.1556,287.9250,54.9704,73.3394,0,U,69263,999,273,-.7765943E-3,-.318626E-2,.45035903E-4
STARLINK-37486,2026-117AC,2026-06-08T06:00:04.000320,15.95421948,.00008676,53.1554,287.9127,59.3282,75.0592,0,U,69264,999,273,-.78617382E-3,-.324025E-2,.4621095E-4
STARLINK-37435,2026-117AD,2026-06-08T06:00:04.000320,15.95731911,.00009844,53.1554,287.8886,63.5633,81.8935,0,U,69265,999,273,-.46056596E-2,-.1894513E-1,.10218601E-2
STARLINK-37464,2026-117AE,2026-06-08T06:00:04.000320,15.95923413,.00009435,53.1553,287.8655,65.7593,90.8112,0,U,69266,999,273,-.49853603E-2,-.2069742E-1,.1208681E-2
KUIPER-00282,2026-118A,2026-06-08T06:00:04.000320,15.35040037,.00121709,51.8580,96.6205,151.0328,288.6253,0,U,69267,999,198,.19092119E-2,.66242E-3,0
KUIPER-00383,2026-118B,2026-06-08T06:00:04.000320,15.35154648,.00102911,51.8584,96.5907,149.3739,304.9081,0,U,69268,999,204,.14860372E-2,.5153E-3,0
KUIPER-00527,2026-118C,2026-06-08T06:00:04.000320,15.35781267,.00098193,51.8613,96.5681,142.8832,323.0020,0,U,69269,999,130,.19927946E-2,.70811E-3,0
KUIPER-00562,2026-118D,2026-06-08T06:00:04.000320,15.38412886,.00019479,51.8721,96.4037,83.8654,97.2108,0,U,69270,999,257,.16896894E-2,.65195E-3,0
KUIPER-00570,2026-118E,2026-06-08T06:00:04.000320,15.35364651,.0011367,51.8571,96.5911,152.4199,301.6307,0,U,69271,999,216,.17276037E-2,.60468E-3,0
KUIPER-00572,2026-118F,2026-06-08T06:00:04.000320,15.36771575,.00072859,51.8670,96.5249,137.8901,348.8976,0,U,69272,999,191,.17293666E-2,.6329E-3,0
KUIPER-00581,2026-118G,2026-06-08T06:00:04.000320,15.36445244,.00088208,51.8650,96.5473,143.3733,332.7708,0,U,69273,999,270,.17382056E-2,.62968E-3,0
KUIPER-00584,2026-118H,2026-06-08T06:00:04.000320,15.35250578,.00110804,51.8598,96.6113,156.3492,288.0761,0,U,69274,999,130,.17471685E-2,.60931E-3,0
KUIPER-00587,2026-118J,2026-06-08T06:00:04.000320,15.36424868,.00082716,51.8624,96.5413,144.5567,334.6101,0,U,69275,999,130,.17302774E-2,.62626E-3,0
KUIPER-00590,2026-118K,2026-06-08T06:00:04.000320,15.37656333,.00042454,51.8687,96.4642,124.7132,31.4761,0,U,69276,999,246,.17294976E-2,.65123E-3,0
KUIPER-00592,2026-118L,2026-06-08T06:00:04.000320,15.37874167,.00037659,51.8707,96.4473,102.0469,61.0880,0,U,69277,999,130,.17228469E-2,.65331E-3,0
KUIPER-00593,2026-118M,2026-06-08T06:00:04.000320,15.37777131,.00039767,51.8713,96.4483,120.0017,41.9629,0,U,69278,999,267,.16908681E-2,.63898E-3,0
KUIPER-00594,2026-118N,2026-06-08T06:00:04.000320,15.38399203,.00015224,51.8717,96.3950,52.8384,134.3856,0,U,69279,999,130,.17595951E-2,.67902E-3,0
KUIPER-00595,2026-118P,2026-06-08T06:00:04.000320,15.38273726,.00019248,51.8712,96.4153,97.5961,80.8810,0,U,69280,999,264,.16594476E-2,.63718E-3,0
KUIPER-00596,2026-118Q,2026-06-08T06:00:04.000320,15.35597202,.00118226,51.8547,96.5995,151.3872,297.7667,0,U,69281,999,191,.17676322E-2,.62368E-3,0
KUIPER-00597,2026-118R,2026-06-08T06:00:04.000320,15.36831853,.00071096,51.8648,96.5096,136.0083,358.7768,0,U,69282,999,130,.17214493E-2,.63118E-3,0
KUIPER-00599,2026-118S,2026-06-08T06:00:04.000320,15.37141252,.0006225,51.8690,96.4968,131.0232,9.0285,0,U,69283,999,171,.17462567E-2,.64681E-3,0
KUIPER-00600,2026-118T,2026-06-08T06:00:04.000320,15.36540113,.00089301,51.8637,96.5372,138.9856,342.1585,0,U,69284,999,249,.1748507E-2,.63545E-3,0
KUIPER-00601,2026-118U,2026-06-08T06:00:04.000320,15.37467300,.00047421,51.8703,96.4753,123.3549,26.4394,0,U,69285,999,252,.17502891E-2,.65513E-3,0
KUIPER-00602,2026-118V,2026-06-08T06:00:04.000320,15.37905546,.00030914,51.8701,96.4419,110.6835,55.7051,0,U,69286,999,130,.16761902E-2,.63598E-3,0
